TDRS 3                  
1 19548U 88091B   19265.34650608 -.00000299  00000-0  00000+0 0  9998
2 19548  14.3009 359.8524 0034741 315.2595 121.7615  1.00271854100700
FLTSATCOM 8 (USA 46)    
1 20253U 89077A   19265.62023998 -.00000080  00000-0  00000+0 0  9993
2 20253  13.0568   7.6507 0002279 180.8680 107.8982  1.00272579235944
SKYNET 4C               
1 20776U 90079A   19265.84338051  .00000125  00000-0  00000+0 0  9999
2 20776  13.9843   8.2396 0002826 195.3066 134.9264  1.00272648106273
TDRS 5                  
1 21639U 91054B   19265.48786654  .00000085  00000-0  00000+0 0  9993
2 21639  14.4124  13.1265 0020514   3.8905 352.1447  1.00267112103048
TDRS 6                  
1 22314U 93003B   19265.86710215 -.00000295  00000-0  00000+0 0  9996
2 22314  14.0835  16.2080 0000730 346.8407 264.7385  1.00271770 97718
UFO 2 (USA 95)          
1 22787U 93056A   19265.51165139  .00000126  00000-0  00000+0 0  9991
2 22787  11.1951  17.0688 0005653 145.9476  50.9685  1.00272406 93996
USA 99 (MILSTAR-1 1)    
1 22988U 94009A   19265.27520132 -.00000266  00000-0  00000+0 0  9990
2 22988  13.6910  54.1740 0002727 134.3400 232.6512  1.00271176  6984
ASTRA 1D                
1 23331U 94070A   19265.41851369 -.00000270  00000-0  00000+0 0  9991
2 23331   8.7375  43.7957 0003441 143.5979 251.2538  1.00269848 91508
UFO 4 (USA 108)         
1 23467U 95003A   19265.63877456 -.00000024  00000-0  00000+0 0  9994
2 23467   9.8966  22.3121 0003148 122.2523 258.8404  1.00275363 90306
AMSC 1                  
1 23553U 95019A   19265.41290032 -.00000099  00000-0  00000+0 0  9994
2 23553  10.9988  33.1466 0003296  75.6369 294.3525  1.00273006 89505
TDRS 7                  
1 23613U 95035B   19265.01592352 -.00000200  00000-0  00000+0 0  9999
2 23613  14.2362   6.9152 0027419  26.0150  58.2545  1.00269343 88480
USA 113                 
1 23628U 95038A   19264.87567935 -.00000338  00000-0  00000+0 0  9992
2 23628  11.1858  32.0325 0001394 151.5471 236.0089  1.00271218  6942
USA 115 (MILSTAR-1 2)   
1 23712U 95060A   19265.13926569 -.00000200  00000-0  00000+0 0  9991
2 23712  13.0672  22.1839 0001697 155.7659 142.8965  1.00274642  6975
INMARSAT 3-F1           
1 23839U 96020A   19265.62264387  .00000000  00000-0  00000+0 0  9992
2 23839   5.5489  63.6311 0005733 117.4642 108.7347  1.00272007 85957
ASTRA 1F                
1 23842U 96021A   19265.84702323  .00000130  00000-0  00000+0 0  9992
2 23842   0.0417 351.7479 0004666 197.1295 161.7567  1.00270802 85674
MSAT M1                 
1 23846U 96022A   19264.47948807 -.00000088  00000-0  00000+0 0  9997
2 23846   8.9172  43.1882 0004244 121.8219 260.1852  1.00272385 85764
INMARSAT 3-F2           
1 24307U 96053A   19265.45730340 -.00000351  00000-0  00000+0 0  9997
2 24307   4.3277  73.4331 0004354  93.3085 114.8470  0.99990934 84353
AMC-1 (GE-1)            
1 24315U 96054A   19265.62348784  .00000059  00000-0  00000+0 0  9997
2 24315   3.3316  80.4558 0003093  97.7849 276.5342  1.00273681 84360
INMARSAT 3-F3           
1 24674U 96070A   19265.47490532  .00000029  00000-0  00000+0 0  9992
2 24674   5.0579  67.6693 0005374 113.4466 168.9857  1.00270802 83300
AMC-2 (GE-2)            
1 24713U 97002A   19265.48905729 -.00000218  00000-0  00000+0 0  9993
2 24713   5.8601  61.7494 0004825 125.8599 264.6760  1.00273267 33665
INTELSAT 26 (IS-26)     
1 24732U 97007A   19264.51333563  .00000016  00000-0  00000+0 0  9998
2 24732   8.6592  44.5780 0002592 147.8951  54.6324  1.00273633 82606
USA 130 (DSP 18)        
1 24737U 97008A   19265.07677167  .00000028  00000-0  00000+0 0  9990
2 24737  13.4264  22.0896 0001156 298.1121  75.7357  1.00271925  6949
GALAXY 25 (G-25)        
1 24812U 97026A   19265.51252374  .00000148  00000-0  00000+0 0  9995
2 24812   1.2931  92.5850 0002527 127.0635 358.8214  1.00271794 81702
INTELSAT 5 (IS-5)       
1 24916U 97046A   19265.51432531  .00000085  00000-0  00000+0 0  9997
2 24916   5.1649  66.9865 0002786 107.7696 234.4943  1.00273266 80956
AMC-3 (GE-3)            
1 24936U 97050A   19265.11368705 -.00000266  00000-0  00000+0 0  9993
2 24936   2.1782  87.6940 0002951 107.7330 134.2113  1.00271661 80779
NSS-5                   
1 24957U 97053A   19265.51610042  .00000100  00000-0  00000+0 0  9993
2 24957   5.4316  65.1735 0003810 119.9183  52.3098  1.00273494 80576
USA 134                 
1 25019U 97065A   19265.48967612 -.00000063  00000-0  00000+0 0  9999
2 25019   9.9054  37.8468 0004134 260.2491 127.3112  1.00276359  6947
ASTRA 1G                
1 25071U 97076A   19265.51863025  .00000013  00000-0  00000+0 0  9990
2 25071   4.0343  74.6937 0003552 110.6261  65.7201  1.00272417 79875
INMARSAT 3-F5           
1 25153U 98006B   19265.49813441 -.00000294  00000-0  00000+0 0  9991
2 25153   4.2438  71.4856 0004469 115.3790 299.5470  1.00268780 79227
UFO 8 (USA 138)         
1 25258U 98016A   19265.63854407 -.00000027  00000-0  00000+0 0  9995
2 25258   8.3919  33.8622 0002179 155.0253 213.7922  1.00269397 78916
INTELSAT 805 (IS-805)   
1 25371U 98037A   19265.46814315 -.00000037  00000-0  00000+0 0  9990
2 25371   1.8245  89.8386 0003334 102.4814 146.3717  1.00272542 77900
ASTRA 2A                
1 25462U 98050A   19264.80810581 -.00000310  00000-0  00000+0 0  9998
2 25462   0.9891  96.1684 0002515  79.9755 215.2425  1.00272051 77077
JCSAT-4A                
1 25630U 99006A   19264.86229990 -.00000208  00000-0  00000+0 0  9997
2 25630   4.0145  75.6247 0002923 109.4701 275.7990  1.00271480 75331
SKYNET 4E               
1 25639U 99009B   19265.56438220 -.00000034  00000-0  00000+0 0  9992
2 25639  10.7236  22.7193 0003141 165.4873  14.8728  1.00273238 75359
ASIASAT 3S              
1 25657U 99013A   19265.45455707 -.00000230  00000-0  00000+0 0  9992
2 25657   4.2115  74.0203 0002441 112.6274 125.5556  1.00272473 75153
NIMIQ 1                 
1 25740U 99027A   19264.64266185 -.00000204  00000-0  00000+0 0  9991
2 25740   0.4592  96.2604 0005017  87.3173 321.4981  1.00271169 74533
ASTRA 1H                
1 25785U 99033A   19265.47582778 -.00000283  00000-0  00000+0 0  9995
2 25785   5.4144  65.3072 0003017 109.6115 290.3119  1.00276998 74125
ABS-7                   
1 25894U 99046A   19265.13905406 -.00000369  00000-0  00000+0 0  9995
2 25894   0.3378  97.3017 0002985  99.0509 330.5401  1.00273947 72473
ABS-6                   
1 25924U 99053A   19265.82482834 -.00000128  00000-0  00000+0 0  9991
2 25924   0.0191 286.6899 0001651 246.3698 284.2588  1.00271444 73217
TELSTAR 12 (ORION 2)    
1 25949U 99059A   19265.13454390 -.00000069  00000-0  00000+0 0  9998
2 25949   2.6914  85.9474 0003628 118.7211  95.2957  1.00272439 72857
AMC-4 (GE-4)            
1 25954U 99060A   19265.11725736  .00000081  00000-0  00000+0 0  9992
2 25954   0.0619 282.8315 0002655 254.1167  91.0751  1.00271271 72818
UFO 10 (USA 146)        
1 25967U 99063A   19265.21945049 -.00000187  00000-0  00000+0 0  9999
2 25967   7.5655  36.4074 0002615  91.6355 289.2553  1.00266304 72674
GALAXY 11 (G-11)        
1 26038U 99071A   19264.62595720 -.00000168  00000-0  00000+0 0  9998
2 26038   0.5865 100.6659 0001232 161.7169 230.0910  1.00272517 72404
USA 148                 
1 26052U 00001A   19265.68551257  .00000038  00000-0  00000+0 0  9998
2 26052   8.0015  48.1521 0000894  44.0396 336.0681  1.00274055  6961
ASIASTAR                
1 26107U 00016A   19265.57285076 -.00000340  00000-0  00000+0 0  9993
2 26107   3.4173  78.6582 0004046 105.9521 127.7905  1.00271852 71486
USA 149 (DSP 20)        
1 26356U 00024A   19265.14652203  .00000098  00000-0  00000+0 0  9990
2 26356  11.3257  28.3814 0001779 250.6103 329.3723  1.00259629  6931
EUTELSAT 80A            
1 26369U 00028A   19265.51557701  .00000115  00000-0  00000+0 0  9996
2 26369   2.7816  82.7046 0003834 110.6353  41.4799  1.00274095 70814
TDRS 8                  
1 26388U 00034A   19265.45189478 -.00000233  00000-0  00000+0 0  9991
2 26388   8.8120  49.4153 0009562 301.1032 262.3460  1.00266729 70504
INTELSAT 9 (IS-9)       
1 26451U 00043A   19265.83313413 -.00000014  00000-0  00000+0 0  9999
2 26451   5.1523  67.1816 0003144 142.8168 157.4930  1.00271458 70180
BRASILSAT B4            
1 26469U 00046A   19265.63125184 -.00000177  00000-0  00000+0 0  9995
2 26469   3.3894  80.2220 0002707 100.7943 315.4490  1.00270944 69974
ASTRA 2B                
1 26494U 00054A   19265.07912703  .00000113  00000-0  00000+0 0  9990
2 26494   3.9295  75.3360 0004742  94.5506 238.7022  1.00275511 69567
AMC-7 (GE-7)            
1 26495U 00054B   19265.51755733  .00000080  00000-0  00000+0 0  9991
2 26495   0.6892  94.9570 0002995  89.8012 227.6531  1.00272152 69595
NSS-11 (AAP-1)          
1 26554U 00059A   19265.03591116  .00000019  00000-0  00000+0 0  9994
2 26554   0.0178 115.0205 0002403  76.1873 358.3425  1.00271428 69500
USA 153                 
1 26575U 00065A   19265.44981609 -.00000327  00000-0  00000+0 0  9992
2 26575   7.4585  51.3568 0001341 123.0018 123.0622  1.00270169  6949
AMC-6 (GE-6)            
1 26580U 00067A   19265.48940623 -.00000223  00000-0  00000+0 0  9990
2 26580   0.0144 159.0149 0002828  47.1442 248.0884  1.00269510 69321
INTELSAT 12 (IS-12)     
1 26590U 00068A   19265.51880472  .00000006  00000-0  00000+0 0  9999
2 26590   2.2918  87.3781 0003099  90.3922  74.3473  1.00271541 69134
INTELSAT 1R (IS-1R)     
1 26608U 00072A   19265.82439216 -.00000146  00000-0  00000+0 0  9990
2 26608   2.0861  88.4910 0001121 126.8766 239.9247  1.00271725 68995
ANIK F1                 
1 26624U 00076A   19265.22982477 -.00000081  00000-0  00000+0 0  9996
2 26624   0.0262 134.3565 0002575  38.4800 163.4215  1.00272874 69065
ASTRA 2D                
1 26638U 00081A   19265.07633549  .00000025  00000-0  00000+0 0  9990
2 26638   5.2527  66.0887 0002092 107.6323 219.5695  1.00271180 68717
AMC-8 (GE-8)            
1 26639U 00081B   19265.11281657  .00000098  00000-0  00000+0 0  9995
2 26639   0.0314 100.5639 0002046 112.8307  48.9060  1.00273420 68600
